     2.11           N: GPS NAV DATA                         RINEX VERSION / TYPE
teqc  2019Feb25                         20221121 12:26:13UTCPGM / RUN BY / DATE
OSX ker:10.11.6|Core i5|gcc 4.3 -m64|OSX ker:10.10+|=+      COMMENT
    4.6566D-09  1.4901D-08 -5.9605D-08 -1.1921D-07          ION ALPHA
    7.7824D+04  4.9152D+04 -6.5536D+04 -2.6214D+05          ION BETA
   -2.793967723846D-09-5.329070518201D-15    61440     1545 DELTA-UTC: A0,A1,T,W
                                                            END OF HEADER
 3 09  8 15  0  0  0.0 4.337900318205D-04 5.115907697473D-12 0.000000000000D+00
    9.100000000000D+01-1.109375000000D+01 5.569517707054D-09 2.759729160334D+00
   -6.817281246185D-07 1.224130776245D-02 7.493421435356D-06 5.153641155243D+03
    5.184000000000D+05-7.450580596924D-09-2.939482245211D+00-1.769512891769D-07
    9.268129988987D-01 2.175000000000D+02 9.248421498106D-01-8.139981920063D-09
    2.407243128482D-10 1.000000000000D+00 1.544000000000D+03 0.000000000000D+00
    2.800000000000D+00 0.000000000000D+00-4.190951585770D-09 9.100000000000D+01
    5.112180000000D+05 4.000000000000D+00
11 09  8 15  0  0  0.0-1.510372385383D-05-1.705302565824D-12 0.000000000000D+00
    6.900000000000D+01 5.375000000000D+00 6.592417457791D-09 1.199255381000D+00
    5.383044481277D-07 9.640223928727D-03 7.912516593933D-06 5.153690954208D+03
    5.184000000000D+05-8.754432201386D-08-1.995078550253D+00 1.415610313416D-07
    8.889816433223D-01 1.898437500000D+02 7.138909851565D-01-9.039305094769D-09
   -4.650193699233D-10 1.000000000000D+00 1.544000000000D+03 0.000000000000D+00
    2.000000000000D+00 0.000000000000D+00-1.164153218269D-08 6.900000000000D+01
    5.112180000000D+05 4.000000000000D+00
19 09  8 15  0  0  0.0 1.511489972472D-05-1.591615728103D-12 0.000000000000D+00
    1.600000000000D+01-2.468750000000D+00 4.970921344541D-09-2.809284345786D+00
    7.450580596924D-09 5.803193431348D-03 7.502734661102D-06 5.153634138107D+03
    5.184000000000D+05-1.061707735062D-07-2.750017363616D+00 1.303851604462D-08
    9.577820749422D-01 2.343750000000D+02-2.941139583641D-01-7.930330330090D-09
    1.653640309328D-10 1.000000000000D+00 1.544000000000D+03 0.000000000000D+00
    2.000000000000D+00 0.000000000000D+00-1.443549990654D-08 1.600000000000D+01
    5.112180000000D+05 4.000000000000D+00
 8 09  8 15  0  0  0.0-2.166801132262D-04-1.705302565824D-12 0.000000000000D+00
    9.000000000000D+00-7.653125000000D+01 3.671224349802D-09 6.642038576596D-01
   -4.023313522339D-06 1.083531510085D-02 5.716457962990D-06 5.153634799957D+03
    5.184000000000D+05 2.291053533554D-07 1.427225976594D+00 9.685754776001D-08
    9.893848636909D-01 2.841562500000D+02 3.007189650274D+00-7.852112786301D-09
    9.357532635937D-11 1.000000000000D+00 1.544000000000D+03 0.000000000000D+00
    2.000000000000D+00 0.000000000000D+00-3.725290298462D-09 9.000000000000D+00
    5.112180000000D+05 4.000000000000D+00
22 09  8 15  0  0  0.0 1.932773739100D-04-1.023181539495D-12 0.000000000000D+00
    1.010000000000D+02 1.169687500000D+02 4.822700884850D-09-1.876078389030D+00
    5.904585123062D-06 5.276450188830D-03 7.323920726776D-06 5.153662319183D+03
    5.184000000000D+05 1.583248376846D-07-6.959893941348D-01-2.421438694000D-08
    9.388596201860D-01 2.295000000000D+02-1.897763489970D+00-8.146053601544D-09
   -2.378670509746D-10 1.000000000000D+00 1.544000000000D+03 0.000000000000D+00
    4.000000000000D+00 0.000000000000D+00-1.769512891769D-08 1.010000000000D+02
    5.112180000000D+05 4.000000000000D+00
18 09  8 15  0  0  0.0 5.151145160198D-06 2.955857780762D-12 0.000000000000D+00
    6.800000000000D+01 1.080312500000D+02 4.853773607725D-09-8.543687865179D-01
    5.507841706276D-06 1.083307305817D-02 6.670132279396D-06 5.153623296738D+03
    5.184000000000D+05 1.955777406693D-07-7.015091157105D-01 1.937150955200D-07
    9.411876495006D-01 2.434375000000D+02-2.393698849931D+00-8.362134030733D-09
   -2.642967233051D-10 1.000000000000D+00 1.544000000000D+03 0.000000000000D+00
    2.000000000000D+00 0.000000000000D+00-1.071020960808D-08 6.800000000000D+01
    5.112180000000D+05 4.000000000000D+00
27 09  8 15  0  0  0.0 7.428508251905D-05 3.183231456205D-12 0.000000000000D+00
    1.180000000000D+02-9.615625000000D+01 3.873732785091D-09-2.550440201237D+00
   -4.971399903297D-06 2.131394029129D-02 5.135312676430D-06 5.153759489059D+03
    5.184000000000D+05 2.309679985046D-07 1.307500940925D+00 1.192092895508D-07
    9.751264799662D-01 2.774687500000D+02-1.559323855503D+00-7.589244693933D-09
    1.503634060966D-10 1.000000000000D+00 1.544000000000D+03 0.000000000000D+00
    2.800000000000D+00 0.000000000000D+00-4.190951585770D-09 1.180000000000D+02
    5.112180000000D+05 4.000000000000D+00
28 09  8 15  0  0  0.0-2.620322629809D-05-1.136868377216D-13 0.000000000000D+00
    5.600000000000D+01-4.665625000000D+01 4.309108063076D-09-1.638476448435D+00
   -2.270564436913D-06 1.499227248132D-02 8.735805749893D-06 5.153651601791D+03
    5.184000000000D+05 3.017485141754D-07 2.443248193951D+00 8.754432201386D-08
    9.674734332318D-01 2.078125000000D+02-2.019879002537D+00-7.708178219420D-09
    4.914490422538D-10 1.000000000000D+00 1.544000000000D+03 0.000000000000D+00
    2.800000000000D+00 0.000000000000D+00-1.071020960808D-08 5.600000000000D+01
    5.112180000000D+05 4.000000000000D+00
26 09  8 15  0  0  0.0 6.447779014707D-05-3.410605131648D-13 0.000000000000D+00
    3.900000000000D+01 1.453125000000D+01 3.835874065266D-09 9.182910651374D-01
    8.773058652878D-07 2.019875729457D-02 3.341585397720D-06 5.154914964676D+03
    5.184000000000D+05-3.073364496231D-07 3.748007705394D-01-4.656612873077D-08
    9.926417786916D-01 3.392500000000D+02 1.031612883503D+00-8.234985877359D-09
   -2.557249376844D-10 1.000000000000D+00 1.544000000000D+03 0.000000000000D+00
    2.000000000000D+00 0.000000000000D+00-6.519258022308D-09 3.900000000000D+01
    5.113380000000D+05 4.000000000000D+00
17 09  8 15  0  0  0.0 7.738126441836D-05 2.614797267597D-12 0.000000000000D+00
    4.400000000000D+01-7.406250000000D+00 4.957706508376D-09-2.184231719116D+00
   -3.520399332047D-07 4.614043515176D-03 7.277354598045D-06 5.153714410782D+03
    5.184000000000D+05 1.564621925354D-07-2.805820439581D+00-1.061707735062D-07
    9.601091489713D-01 2.378437500000D+02-2.634796475700D+00-8.087836890870D-09
    1.550064566411D-10 1.000000000000D+00 1.544000000000D+03 0.000000000000D+00
    2.000000000000D+00 0.000000000000D+00-1.024454832077D-08 4.400000000000D+01
    5.116080000000D+05 4.000000000000D+00
 9 09  8 15  0  0  0.0 7.201358675957D-05 2.046363078989D-12 0.000000000000D+00
    4.100000000000D+01-8.650000000000D+01 4.076955535848D-09 4.199711326148D-01
   -4.719942808151D-06 2.075287897605D-02 6.286427378654D-06 5.153633049011D+03
    5.184000000000D+05-2.756714820862D-07 1.331751100482D+00-1.266598701477D-07
    9.770703001799D-01 2.706875000000D+02 1.503555228333D+00-8.312846263414D-09
   -7.178870457341D-11 1.000000000000D+00 1.544000000000D+03 0.000000000000D+00
    2.800000000000D+00 0.000000000000D+00-5.587935447693D-09 4.100000000000D+01
    5.128080000000D+05 4.000000000000D+00
32 09  8 15  0  0  0.0 2.148640342057D-04-6.593836587854D-12 0.000000000000D+00
    1.070000000000D+02 1.057812500000D+02 4.261606084428D-09 2.097492463746D+00
    5.425885319710D-06 1.323555072304D-02 6.988644599915D-06 5.153754873276D+03
    5.184000000000D+05 1.695007085800D-07-6.441665349789D-01 3.352761268616D-08
    9.629218766927D-01 2.381875000000D+02-1.133504004203D+00-7.794967548830D-09
   -2.928693420408D-10 1.000000000000D+00 1.544000000000D+03 0.000000000000D+00
    2.000000000000D+00 0.000000000000D+00-3.259629011154D-09 1.070000000000D+02
    5.131680000000D+05 4.000000000000D+00
14 09  8 15  0  0  0.0-6.514647975564D-05 5.456968210638D-12 0.000000000000D+00
    6.600000000000D+01 1.650000000000D+01 3.801586922783D-09-2.682683693161D+00
    9.797513484955D-07 4.775692126714D-03 2.555549144745D-06 5.153635219574D+03
    5.184000000000D+05-7.636845111847D-08 3.573382597500D-01-1.490116119385D-08
    9.882865340553D-01 3.455625000000D+02-2.166439715287D+00-7.907472235101D-09
    3.107272287506D-11 1.000000000000D+00 1.544000000000D+03 0.000000000000D+00
    2.000000000000D+00 0.000000000000D+00-9.313225746155D-09 6.600000000000D+01
    5.139480000000D+05 4.000000000000D+00
20 09  8 15  0  0  0.0 7.475353777409D-05-9.094947017729D-13 0.000000000000D+00
    7.700000000000D+01 8.800000000000D+01 4.926276627767D-09-6.685608797413D-01
    4.559755325317D-06 3.838807460852D-03 7.629394531250D-06 5.153794544220D+03
    5.184000000000D+05-4.284083843231D-08-7.553815889266D-01 3.166496753693D-08
    9.408455958470D-01 2.190000000000D+02 1.339435352722D+00-8.309274686072D-09
   -2.507247294057D-10 1.000000000000D+00 1.544000000000D+03 0.000000000000D+00
    2.000000000000D+00 0.000000000000D+00-6.519258022308D-09 7.700000000000D+01
    5.149980000000D+05 4.000000000000D+00
